[{"OBJECT_NAME":"ION SCV-004","OBJECT_ID":"2022-002K","EPOCH":"2026-03-09T16:32:03.244416","MEAN_MOTION":15.29369331,"ECCENTRICITY":0.00072157,"INCLINATION":97.2961,"RA_OF_ASC_NODE":128.2294,"ARG_OF_PERICENTER":1.6783,"MEAN_ANOMALY":358.448,"EPHEMERIS_TYPE":0,"CLASSIFICATION_TYPE":"U","NORAD_CAT_ID":50993,"ELEMENT_SET_NO":999,"REV_AT_EPOCH":23008,"BSTAR":0.00023198467,"MEAN_MOTION_DOT":6.538e-5,"MEAN_MOTION_DDOT":0},{"OBJECT_NAME":"STARLINK-31293","OBJECT_ID":"2024-027X","EPOCH":"2026-03-09T22:01:04.989504","MEAN_MOTION":15.30219237,"ECCENTRICITY":9.693e-5,"INCLINATION":53.1622,"RA_OF_ASC_NODE":308.5279,"ARG_OF_PERICENTER":86.4007,"MEAN_ANOMALY":273.7105,"EPHEMERIS_TYPE":0,"CLASSIFICATION_TYPE":"U","NORAD_CAT_ID":58952,"ELEMENT_SET_NO":999,"REV_AT_EPOCH":11736,"BSTAR":-0.00023460942,"MEAN_MOTION_DOT":-7.305e-5,"MEAN_MOTION_DDOT":0}]
